IRIDIUM 106             
1 41917U 17003A   26256.98057789  .00000056  00000+0  12969-4 0  9998
2 41917  86.3939  51.4017 0001975  84.0161 276.1259 14.34217812505939
IRIDIUM 103             
1 41918U 17003B   26257.17720044 -.00000003  00000+0 -83115-5 0  9998
2 41918  86.3939  51.2196 0002205  89.7278 270.4170 14.34216867505987
IRIDIUM 109             
1 41919U 17003C   26257.18354396  .00000166  00000+0  52270-4 0  9998
2 41919  86.3939  51.2774 0002154  91.5795 268.5647 14.34213755505955
IRIDIUM 102             
1 41920U 17003D   26256.94252549  .00000090  00000+0  25100-4 0  9998
2 41920  86.3940  51.3000 0002082  91.0781 269.0654 14.34218364506004
IRIDIUM 105             
1 41921U 17003E   26256.62205125  .00000140  00000+0  42836-4 0  9993
2 41921  86.4006  19.8856 0002272  98.5089 261.6364 14.34217609507818
IRIDIUM 104             
1 41922U 17003F   26256.95522682  .00000271  00000+0  89858-4 0  9990
2 41922  86.3940  51.3385 0002419  94.7691 265.3781 14.34219751505994
IRIDIUM 114             
1 41923U 17003G   26256.89178632  .00000182  00000+0  58075-4 0  9994
2 41923  86.3943  51.3480 0002214  91.2870 268.8579 14.34215820505961
IRIDIUM 108             
1 41924U 17003H   26256.92007406  .00000082  00000+0  22129-4 0  9999
2 41924  86.4000  19.6457 0002132  95.9328 264.2110 14.34217614507827
IRIDIUM 112             
1 41925U 17003J   26256.94887089  .00000121  00000+0  36031-4 0  9996
2 41925  86.3937  51.1620 0002173  93.2672 266.8772 14.34218183505997
IRIDIUM 111             
1 41926U 17003K   26256.51757091  .00000051  00000+0  11081-4 0  9999
2 41926  86.3937  51.4150 0002161  90.4040 269.7404 14.34217485505914
IRIDIUM 113             
1 42803U 17039A   26257.05568440  .00000009  00000+0 -38004-5 0  9990
2 42803  86.3924 285.0323 0002213  93.6032 266.5417 14.34217646483920
IRIDIUM 123             
1 42804U 17039B   26256.74832071  .00000046  00000+0  93340-5 0  9994
2 42804  86.3983 316.6391 0002244  90.3673 269.7780 14.34217226482641
IRIDIUM 120             
1 42805U 17039C   26257.04934153  .00000000  00000+0 -69011-5 0  9992
2 42805  86.3914 284.8058 0002040  90.3146 269.8283 14.34217558483919
IRIDIUM 115             
1 42806U 17039D   26257.07004147  .00000192  00000+0  51141-4 0  9992
2 42806  86.4450 284.9384 0002362  86.8522 273.2949 14.43281471487089
IRIDIUM 118             
1 42807U 17039E   26256.64049662  .00000058  00000+0  13504-4 0  9998
2 42807  86.3986 316.6819 0002213  95.4078 264.7370 14.34216795482621
IRIDIUM 117             
1 42808U 17039F   26257.14790359  .00000000  00000+0 -72399-5 0  9997
2 42808  86.3980 316.4262 0002137  93.1682 266.9758 14.34216879482725
IRIDIUM 126             
1 42809U 17039G   26256.89420043  .00000124  00000+0  37212-4 0  9999
2 42809  86.3984 316.5852 0002332  94.2548 265.8915 14.34217307482669
IRIDIUM 124             
1 42810U 17039H   26256.93452565  .00000127  00000+0  31850-4 0  9995
2 42810  86.4432 253.2335 0002379  87.9612 272.1861 14.43279551487918
IRIDIUM 128             
1 42811U 17039J   26256.95470742  .00000005  00000+0 -51524-5 0  9992
2 42811  86.4022 348.0560 0002014  93.5933 266.5493 14.34216907482708
IRIDIUM 121             
1 42812U 17039K   26256.63415293  .00000022  00000+0  92637-6 0  9997
2 42812  86.3986 316.7222 0002161  94.6730 265.4713 14.34216786482500
IRIDIUM 133             
1 42955U 17061A   26257.19572608  .00000174  00000+0  55032-4 0  9990
2 42955  86.4029 348.0753 0002162  94.2541 265.8902 14.34217876467532
IRIDIUM 100             
1 42956U 17061B   26257.18938294  .00000025  00000+0  18159-5 0  9992
2 42956  86.4024 347.9944 0002030  95.1414 265.0014 14.34216999467532
IRIDIUM 122             
1 42957U 17061C   26257.08789990  .00000077  00000+0  20600-4 0  9999
2 42957  86.4027 348.0373 0002240  93.5196 266.6256 14.34217022467528
IRIDIUM 129             
1 42958U 17061D   26256.83419807  .00000088  00000+0  24473-4 0  9993
2 42958  86.4028 348.2111 0002324  99.6226 260.5232 14.34217412467504
IRIDIUM 119             
1 42959U 17061E   26256.87225389  .00000191  00000+0  61186-4 0  9995
2 42959  86.4028 348.1914 0002261  94.0956 266.0499 14.34218282467528
IRIDIUM 107             
1 42960U 17061F   26256.33313356  .00000081  00000+0  21764-4 0  9996
2 42960  86.4029 348.4382 0002251  88.6600 271.4854 14.34217564467456
IRIDIUM 132             
1 42961U 17061G   26256.82785568  .00000063  00000+0  15420-4 0  9991
2 42961  86.4029 348.2107 0002196  95.1959 264.9488 14.34217577467520
IRIDIUM 136             
1 42962U 17061H   26256.99910544  .00000044  00000+0  87774-5 0  9995
2 42962  86.4029 348.1463 0002171  95.5190 264.6254 14.34217415467562
IRIDIUM 139             
1 42963U 17061J   26256.86591072  .00000105  00000+0  30420-4 0  9996
2 42963  86.4031 348.2651 0002161  93.6243 266.5200 14.34217719467551
IRIDIUM 125             
1 42964U 17061K   26256.78345848  .00000133  00000+0  40597-4 0  9993
2 42964  86.4033 348.3623 0002652  89.3391 270.8109 14.34218133467552
IRIDIUM 135             
1 43070U 17083A   26257.03665676  .00000009  00000+0 -38239-5 0  9993
2 43070  86.3919 284.8714 0002145  92.7524 267.3917 14.34217502456882
IRIDIUM 138             
1 43071U 17083B   26257.06202670 -.00000007  00000+0 -94761-5 0  9999
2 43071  86.3932 284.5697 0002265  92.8991 267.2464 14.34217603456874
IRIDIUM 116             
1 43072U 17083C   26257.10008220  .00000024  00000+0  16176-5 0  9991
2 43072  86.3918 284.8297 0001911  88.2069 271.9346 14.34217673456913
IRIDIUM 130             
1 43073U 17083D   26257.06836971  .00000035  00000+0  53870-5 0  9993
2 43073  86.3928 285.1275 0002203  87.5496 272.5952 14.34217938456853
IRIDIUM 151             
1 43074U 17083E   26257.04299877  .00000016  00000+0 -14207-5 0  9991
2 43074  86.3921 284.9134 0002062  91.8433 268.2999 14.34217662456879
IRIDIUM 134             
1 43075U 17083F   26257.08105471  .00000020  00000+0 -57120-7 0  9990
2 43075  86.3922 284.9068 0002128  90.6066 269.5374 14.34217681456848
IRIDIUM 137             
1 43076U 17083G   26257.16350796  .00000021  00000+0  32768-6 0  9992
2 43076  86.3922 284.9670 0001829  96.6030 263.5374 14.34217657456928
IRIDIUM 141             
1 43077U 17083H   26257.08739713  .00000024  00000+0  16631-5 0  9997
2 43077  86.3918 284.8243 0002183  92.9420 267.2026 14.34217749456911
IRIDIUM 153             
1 43078U 17083J   26256.96980522  .00000005  00000+0 -52513-5 0  9999
2 43078  86.3910 253.3345 0002440  88.9942 271.1533 14.34217312458003
IRIDIUM 131             
1 43079U 17083K   26257.00494262  .00000013  00000+0 -23585-5 0  9993
2 43079  86.3924 285.0513 0002218  93.0713 267.0737 14.34218107456836
IRIDIUM 144             
1 43249U 18030A   26256.69707626  .00000082  00000+0  22233-4 0  9993
2 43249  86.3907 253.3756 0002186  88.1389 272.0057 14.34217906442822
IRIDIUM 149             
1 43250U 18030B   26256.98249278 -.00000013  00000+0 -11698-4 0  9990
2 43250  86.3909 253.2223 0002220  89.7146 270.4304 14.34217140442884
IRIDIUM 157             
1 43251U 18030C   26256.51313976 -.00000028  00000+0 -17032-4 0  9991
2 43251  86.3910 253.4737 0002171  88.8062 271.3383 14.34216610442799
IRIDIUM 140             
1 43252U 18030D   26256.95077749 -.00000057  00000+0 -27444-4 0  9995
2 43252  86.3911 253.3031 0002176  88.1913 271.9532 14.34216844442915
IRIDIUM 145             
1 43253U 18030E   26257.14739949  .00000025  00000+0  17228-5 0  9998
2 43253  86.3908 253.1927 0002052  84.9605 275.1825 14.34217246442872
IRIDIUM 146             
1 43254U 18030F   26257.05859985  .00000065  00000+0  16081-4 0  9991
2 43254  86.3909 253.2417 0002193  88.1899 271.9548 14.34217741442872
IRIDIUM 148             
1 43255U 18030G   26256.60827912 -.00000025  00000+0 -16122-4 0  9991
2 43255  86.3911 253.4748 0002127  91.5679 268.5760 14.34217041442844
IRIDIUM 142             
1 43256U 18030H   26256.99517515  .00000019  00000+0 -42908-6 0  9994
2 43256  86.3906 253.1985 0002129  88.3206 271.8233 14.34217528442865
IRIDIUM 150             
1 43257U 18030J   26256.96346264  .00000011  00000+0 -31587-5 0  9995
2 43257  86.3908 253.3310 0002237  87.4119 272.7333 14.34217674442880
IRIDIUM 143             
1 43258U 18030K   26257.15373889 -.00000004  00000+0 -84057-5 0  9994
2 43258  86.3917 253.3476 0002135  87.2099 272.9341 14.34217261442845
IRIDIUM 161             
1 43478U 18047C   26256.49648034  .00000287  00000+0  79301-4 0  9995
2 43478  86.4459  51.5133 0002264  95.9435 264.2024 14.43279977437873
IRIDIUM 152             
1 43479U 18047D   26257.12646163  .00000171  00000+0  53940-4 0  9991
2 43479  86.3936  51.1119 0002165  92.3686 267.7757 14.34217092435231
IRIDIUM 147             
1 43480U 18047E   26257.13280615  .00000151  00000+0  46974-4 0  9997
2 43480  86.3937  51.1160 0002031  90.1876 269.9553 14.34212656435238
IRIDIUM 110             
1 43481U 18047F   26257.13914698  .00000121  00000+0  36308-4 0  9990
2 43481  86.3941  51.2076 0002327  96.6527 263.4933 14.34218321435228
IRIDIUM 162             
1 43482U 18047G   26256.49016908  .00000147  00000+0  37634-4 0  9997
2 43482  86.4458  51.4060 0002185  90.7986 269.3465 14.43279105437868
IRIDIUM 160             
1 43569U 18061A   26257.08498054  .00000075  00000+0  19600-4 0  9994
2 43569  86.4005  19.6172 0002147  95.1824 264.9616 14.34217332426119
IRIDIUM 166             
1 43570U 18061B   26256.62197061 -.00000021  00000+0 -14645-4 0  9996
2 43570  86.3998  19.7603 0001950  93.5398 266.6021 14.34216499426077
IRIDIUM 158             
1 43571U 18061C   26257.07864024  .00000153  00000+0  47556-4 0  9998
2 43571  86.4005  19.5792 0002191  93.0967 267.0479 14.34217723426107
IRIDIUM 165             
1 43572U 18061D   26257.10401019  .00000054  00000+0  12335-4 0  9991
2 43572  86.4007  19.6167 0002086  92.7907 267.3528 14.34217393426134
IRIDIUM 155             
1 43573U 18061E   26256.85664873  .00000027  00000+0  24507-5 0  9997
2 43573  86.4002  19.5846 0002146  91.6835 268.4606 14.34217279426062
IRIDIUM 154             
1 43574U 18061F   26256.90738937  .00000009  00000+0 -39381-5 0  9994
2 43574  86.4000  19.7018 0001935  93.3920 266.7497 14.34217103426125
IRIDIUM 163             
1 43575U 18061G   26257.09766749  .00000076  00000+0  20187-4 0  9994
2 43575  86.4002  19.5342 0002217  95.3247 264.8202 14.34217478426122
IRIDIUM 156             
1 43576U 18061H   26257.07229358  .00000124  00000+0  37145-4 0  9999
2 43576  86.4003  19.5526 0002166  90.3583 269.7861 14.34216700426110
IRIDIUM 164             
1 43577U 18061J   26256.91373147  .00000066  00000+0  16360-4 0  9999
2 43577  86.4004  19.6603 0001990  94.0336 266.1088 14.34217676426137
IRIDIUM 159             
1 43578U 18061K   26257.09132441  .00000003  00000+0 -60454-5 0  9996
2 43578  86.3999  19.5215 0002102  95.4526 264.6910 14.34217108426126
IRIDIUM 180             
1 43922U 19002A   26256.74197874  .00000128  00000+0  38530-4 0  9993
2 43922  86.3984 316.6016 0002205  95.9218 264.2229 14.34217358401680
IRIDIUM 176             
1 43923U 19002B   26257.12871332  .00000534  00000+0  80838-4 0  9994
2 43923  86.6102 316.3710 0002377  92.9245 267.2244 14.72245734412336
IRIDIUM 168             
1 43924U 19002C   26256.87516985  .00000114  00000+0  33657-4 0  9997
2 43924  86.3988 316.6256 0002235  95.8530 264.2920 14.34216660401684
IRIDIUM 173             
1 43925U 19002D   26256.65318156  .00000057  00000+0  13260-4 0  9998
2 43925  86.3982 316.6033 0002245  93.9541 266.1912 14.34217201401633
IRIDIUM 169             
1 43926U 19002E   26257.00540627  .00000232  00000+0  69352-4 0  9997
2 43926  86.4283 348.0787 0002410  85.3483 274.7990 14.38610640402997
IRIDIUM 172             
1 43927U 19002F   26257.13522051  .00000075  00000+0  19544-4 0  9996
2 43927  86.3981 316.4104 0002234  95.5527 264.5924 14.34217250401719
IRIDIUM 175             
1 43928U 19002G   26256.51247332  .00000105  00000+0  24885-4 0  9992
2 43928  86.4462 253.5822 0001370 329.3885  30.7236 14.43645362411728
IRIDIUM 171             
1 43929U 19002H   26257.11619113  .00000110  00000+0  32101-4 0  9996
2 43929  86.3990 316.7343 0002133  93.2665 266.8775 14.34217089401703
IRIDIUM 170             
1 43930U 19002J   26257.13489802  .00000501  00000+0  75472-4 0  9992
2 43930  86.6103 316.3701 0002482  94.6094 265.5407 14.72257482412349
IRIDIUM 167             
1 43931U 19002K   26256.90054179  .00000149  00000+0  46322-4 0  9992
2 43931  86.3984 316.5316 0002112  89.2377 270.9061 14.34217075401674
IRIDIUM 181             
1 56726U 23068S   26256.91740484  .00000201  00000+0  53648-4 0  9995
2 56726  86.4540  19.6894 0002121  97.4908 262.6534 14.43311518175232
IRIDIUM 177             
1 56727U 23068T   26256.84476140  .00000612  00000+0  82956-4 0  9993
2 56727  86.1924 286.7255 0002590  92.1152 268.0364 14.77163888179470
IRIDIUM 174             
1 56728U 23068U   26257.19050520  .00000521  00000+0  78751-4 0  9990
2 56728  86.6110 316.5032 0002675  92.5600 267.5923 14.72258174179118
IRIDIUM 178             
1 56729U 23068V   26257.01545544  .00000678  00000+0  86237-4 0  9998
2 56729  86.6597 348.2659 0002552  94.3639 265.7874 14.80037382179504
IRIDIUM 179             
1 56730U 23068W   26257.21291161  .00000801  00000+0  10237-3 0  9999
2 56730  86.6838 357.4212 0002362  91.0753 269.0739 14.80049917179538
